[
    {
        "Altitude(m)": 716532.7742174391,
        "Argument of Periapsis(deg)": 0.011390121186627068,
        "Eccentricity": 0.0,
        "Inclination(deg)": 45.0,
        "Latitude(deg)": -41.894145970895025,
        "Longitude(deg)": -153.93141835585126,
        "Mean Anomaly(deg)": 289.7150166474808,
        "RAAN(deg)": 9.989248058541795,
        "Satellite Name": "Constellation 1 61",
        "Satellite Number": 61,
        "Semi-Major Axis(m)": 7083131.272910544,
        "Time(s)": 190
    },
    {
        "Altitude(m)": 716524.72783498,
        "Argument of Periapsis(deg)": 0.011450069192872472,
        "Eccentricity": 0.0,
        "Inclination(deg)": 45.0,
        "Latitude(deg)": -41.87474252355857,
        "Longitude(deg)": -153.85864138838218,
        "Mean Anomaly(deg)": 289.7757177877307,
        "RAAN(deg)": 9.989191469376227,
        "Satellite Name": "Constellation 1 61",
        "Satellite Number": 61,
        "Semi-Major Axis(m)": 7083131.272910544,
        "Time(s)": 191
    },
    {
        "Altitude(m)": 716516.6600363526,
        "Argument of Periapsis(deg)": 0.01151001719911788,
        "Eccentricity": 0.0,
        "Inclination(deg)": 45.0,
        "Latitude(deg)": -41.85528756711005,
        "Longitude(deg)": -153.7859108628806,
        "Mean Anomaly(deg)": 289.8364189279806,
        "RAAN(deg)": 9.989134880210656,
        "Satellite Name": "Constellation 1 61",
        "Satellite Number": 61,
        "Semi-Major Axis(m)": 7083131.272910544,
        "Time(s)": 192
    },
    {
        "Altitude(m)": 716508.5708511127,
        "Argument of Periapsis(deg)": 0.011569965205363285,
        "Eccentricity": 0.0,
        "Inclination(deg)": 45.0,
        "Latitude(deg)": -41.83578116694987,
        "Longitude(deg)": -153.71322701036067,
        "Mean Anomaly(deg)": 289.89712006823055,
        "RAAN(deg)": 9.989078291045088,
        "Satellite Name": "Constellation 1 61",
        "Satellite Number": 61,
        "Semi-Major Axis(m)": 7083131.272910544,
        "Time(s)": 193
    },
    {
        "Altitude(m)": 716500.4603089081,
        "Argument of Periapsis(deg)": 0.01162991321160869,
        "Eccentricity": 0.0,
        "Inclination(deg)": 45.0,
        "Latitude(deg)": -41.81622338854911,
        "Longitude(deg)": -153.6405895570062,
        "Mean Anomaly(deg)": 289.9578212084804,
        "RAAN(deg)": 9.989021701879519,
        "Satellite Name": "Constellation 1 61",
        "Satellite Number": 61,
        "Semi-Major Axis(m)": 7083131.272910544,
        "Time(s)": 194
    },
    {
        "Altitude(m)": 716492.3284394534,
        "Argument of Periapsis(deg)": 0.011689861217854095,
        "Eccentricity": 0.0,
        "Inclination(deg)": 45.0,
        "Latitude(deg)": -41.796614297447604,
        "Longitude(deg)": -153.5679987327563,
        "Mean Anomaly(deg)": 290.0185223487303,
        "RAAN(deg)": 9.988965112713949,
        "Satellite Name": "Constellation 1 61",
        "Satellite Number": 61,
        "Semi-Major Axis(m)": 7083131.272910544,
        "Time(s)": 195
    },
    {
        "Altitude(m)": 716484.1752725431,
        "Argument of Periapsis(deg)": 0.0117498092240995,
        "Eccentricity": 0.0,
        "Inclination(deg)": 45.0,
        "Latitude(deg)": -41.776953959253795,
        "Longitude(deg)": -153.49545459891553,
        "Mean Anomaly(deg)": 290.0792234889802,
        "RAAN(deg)": 9.988908523548378,
        "Satellite Name": "Constellation 1 61",
        "Satellite Number": 61,
        "Semi-Major Axis(m)": 7083131.272910544,
        "Time(s)": 196
    },
    {
        "Altitude(m)": 716476.0008380493,
        "Argument of Periapsis(deg)": 0.011809757230344905,
        "Eccentricity": 0.0,
        "Inclination(deg)": 45.0,
        "Latitude(deg)": -41.757242439643775,
        "Longitude(deg)": -153.4229572162527,
        "Mean Anomaly(deg)": 290.13992462923017,
        "RAAN(deg)": 9.98885193438281,
        "Satellite Name": "Constellation 1 61",
        "Satellite Number": 61,
        "Semi-Major Axis(m)": 7083131.272910544,
        "Time(s)": 197
    },
    {
        "Altitude(m)": 716467.8051659191,
        "Argument of Periapsis(deg)": 0.011869705236590313,
        "Eccentricity": 0.0,
        "Inclination(deg)": 45.0,
        "Latitude(deg)": -41.737479804360476,
        "Longitude(deg)": -153.3505066450016,
        "Mean Anomaly(deg)": 290.20062576948,
        "RAAN(deg)": 9.988795345217241,
        "Satellite Name": "Constellation 1 61",
        "Satellite Number": 61,
        "Semi-Major Axis(m)": 7083131.272910544,
        "Time(s)": 198
    },
    {
        "Altitude(m)": 716459.5882861774,
        "Argument of Periapsis(deg)": 0.011929653242835719,
        "Eccentricity": 0.0,
        "Inclination(deg)": 45.0,
        "Latitude(deg)": -41.71766611921295,
        "Longitude(deg)": -153.27810294486144,
        "Mean Anomaly(deg)": 290.26132690972986,
        "RAAN(deg)": 9.98873875605167,
        "Satellite Name": "Constellation 1 61",
        "Satellite Number": 61,
        "Semi-Major Axis(m)": 7083131.272910544,
        "Time(s)": 199
    }
]